[{"OBJECT_NAME":"YAOGAN-24","OBJECT_ID":"2014-072A","EPOCH":"2026-03-09T23:33:58.619808","MEAN_MOTION":14.76230497,"ECCENTRICITY":0.00123495,"INCLINATION":98.131,"RA_OF_ASC_NODE":205.5775,"ARG_OF_PERICENTER":217.5868,"MEAN_ANOMALY":142.4479,"EPHEMERIS_TYPE":0,"CLASSIFICATION_TYPE":"U","NORAD_CAT_ID":40310,"ELEMENT_SET_NO":999,"REV_AT_EPOCH":60908,"BSTAR":0.00015342398,"MEAN_MOTION_DOT":1.01e-5,"MEAN_MOTION_DDOT":0},{"OBJECT_NAME":"KUIPER-00020","OBJECT_ID":"2025-088M","EPOCH":"2026-03-09T07:33:05.565600","MEAN_MOTION":14.79999577,"ECCENTRICITY":0.00065612,"INCLINATION":51.9003,"RA_OF_ASC_NODE":104.7471,"ARG_OF_PERICENTER":80.9967,"MEAN_ANOMALY":279.1738,"EPHEMERIS_TYPE":0,"CLASSIFICATION_TYPE":"U","NORAD_CAT_ID":63735,"ELEMENT_SET_NO":999,"REV_AT_EPOCH":4760,"BSTAR":0.00067043352,"MEAN_MOTION_DOT":4.902e-5,"MEAN_MOTION_DDOT":0}]
